start=new Date('2022-01-29T00:00:00.000Z').valueOf();
sats=[{"RCS_SIZE":"LARGE","COUNTRY_CODE":"US","EPHEMERIS_TYPE":"0","BSTAR":"-0.00010813000000","LAUNCH_DATE":"2020-11-25","SEMIMAJOR_AXIS":"6925.358","RA_OF_ASC_NODE":"189.0678","MEAN_ANOMALY":"271.6874","TLE_LINE1":"1 47141U 20088V   22028.86741463 -.00001892  00000-0 -10813-3 0  9996","INCLINATION":"53.0591","MEAN_MOTION_DDOT":"0.0000000000000","PERIOD":"95.592","ECCENTRICITY":"0.00020210","MEAN_MOTION_DOT":"-0.00001892","EPOCH":"2022-01-28T20:49:04.624032","PERIAPSIS":"545.823","OBJECT_NAME":"STARLINK-1854","CLASSIFICATION_TYPE":"U","GP_ID":"194844705","SITE":"AFETR","CENTER_NAME":"EARTH","OBJECT_ID":"2020-088V","ELEMENT_SET_NO":"999","MEAN_MOTION":"15.06397042","REF_FRAME":"TEME","NORAD_CAT_ID":"47141","REV_AT_EPOCH":"6577","DECAY_DATE":null,"APOAPSIS":"548.622","MEAN_ELEMENT_THEORY":"SGP4","TLE_LINE2":"2 47141  53.0591 189.0678 0002021  88.4347 271.6874 15.06397042 65777","FILE":"3286235","ARG_OF_PERICENTER":"88.4347","TIME_SYSTEM":"UTC","OBJECT_TYPE":"PAYLOAD"},{"ELEMENT_SET_NO":"999","MEAN_MOTION":"15.06396686","OBJECT_ID":"2020-088X","OBJECT_TYPE":"PAYLOAD","TIME_SYSTEM":"UTC","ARG_OF_PERICENTER":"83.3295","FILE":"3286235","TLE_LINE2":"2 47143  53.0541 189.7371 0002056  83.3295 276.7928 15.06396686 65741","MEAN_ELEMENT_THEORY":"SGP4","APOAPSIS":"548.648","REV_AT_EPOCH":"6574","DECAY_DATE":null,"REF_FRAME":"TEME","NORAD_CAT_ID":"47143","MEAN_ANOMALY":"276.7928","TLE_LINE1":"1 47143U 20088X   22028.71628783 -.00000239  00000-0  28749-5 0  9993","LAUNCH_DATE":"2020-11-25","BSTAR":"0.00000287490000","SEMIMAJOR_AXIS":"6925.359","RA_OF_ASC_NODE":"189.7371","EPHEMERIS_TYPE":"0","COUNTRY_CODE":"US","RCS_SIZE":"LARGE","SITE":"AFETR","CENTER_NAME":"EARTH","GP_ID":"194843453","PERIAPSIS":"545.800","EPOCH":"2022-01-28T17:11:27.268512","OBJECT_NAME":"STARLINK-1856","CLASSIFICATION_TYPE":"U","MEAN_MOTION_DOT":"-0.00000239","ECCENTRICITY":"0.00020560","PERIOD":"95.592","INCLINATION":"53.0541","MEAN_MOTION_DDOT":"0.0000000000000"},{"SEMIMAJOR_AXIS":"6925.360","LAUNCH_DATE":"2020-11-25","BSTAR":"-0.00008384000000","RA_OF_ASC_NODE":"179.2217","MEAN_ANOMALY":"277.1752","TLE_LINE1":"1 47144U 20088Y   22028.83515975 -.00001530  00000-0 -83840-4 0  9993","RCS_SIZE":"LARGE","COUNTRY_CODE":"US","EPHEMERIS_TYPE":"0","EPOCH":"2022-01-28T20:02:37.802400","PERIAPSIS":"545.819","CLASSIFICATION_TYPE":"U","OBJECT_NAME":"STARLINK-1857","GP_ID":"194843703","SITE":"AFETR","CENTER_NAME":"EARTH","INCLINATION":"53.0554","MEAN_MOTION_DDOT":"0.0000000000000","PERIOD":"95.592","MEAN_MOTION_DOT":"-0.00001530","ECCENTRICITY":"0.00020300","OBJECT_ID":"2020-088Y","ELEMENT_SET_NO":"999","MEAN_MOTION":"15.06396230","MEAN_ELEMENT_THEORY":"SGP4","TLE_LINE2":"2 47144  53.0554 179.2217 0002030  82.9468 277.1752 15.06396230 65901","ARG_OF_PERICENTER":"82.9468","FILE":"3286235","TIME_SYSTEM":"UTC","OBJECT_TYPE":"PAYLOAD","REF_FRAME":"TEME","NORAD_CAT_ID":"47144","REV_AT_EPOCH":"6590","DECAY_DATE":null,"APOAPSIS":"548.631"},{"DECAY_DATE":null,"REV_AT_EPOCH":"6593","NORAD_CAT_ID":"47145","REF_FRAME":"TEME","APOAPSIS":"494.856","ARG_OF_PERICENTER":"35.5088","FILE":"3286235","MEAN_ELEMENT_THEORY":"SGP4","TLE_LINE2":"2 47145  53.0515 177.6418 0001922  35.5088 324.6036 15.24085390 65933","OBJECT_TYPE":"PAYLOAD","TIME_SYSTEM":"UTC","OBJECT_ID":"2020-088Z","MEAN_MOTION":"15.24085390","ELEMENT_SET_NO":"999","MEAN_MOTION_DDOT":"0.0000000000000","INCLINATION":"53.0515","ECCENTRICITY":"0.00019220","MEAN_MOTION_DOT":"0.00154587","PERIOD":"94.483","GP_ID":"194844455","OBJECT_NAME":"STARLINK-1858","CLASSIFICATION_TYPE":"U","PERIAPSIS":"492.214","EPOCH":"2022-01-28T21:48:37.613088","SITE":"AFETR","CENTER_NAME":"EARTH","COUNTRY_CODE":"US","RCS_SIZE":"LARGE","EPHEMERIS_TYPE":"0","RA_OF_ASC_NODE":"177.6418","LAUNCH_DATE":"2020-11-25","SEMIMAJOR_AXIS":"6871.670","BSTAR":"0.00616650000000","TLE_LINE1":"1 47145U 20088Z   22028.90876867  .00154587  00000-0  61665-2 0  9990","MEAN_ANOMALY":"324.6036"},{"CENTER_NAME":"EARTH","SITE":"AFETR","GP_ID":"194845205","EPOCH":"2022-01-28T20:16:40.786464","PERIAPSIS":"371.481","OBJECT_NAME":"STARLINK-1859","CLASSIFICATION_TYPE":"U","ECCENTRICITY":"0.00021010","MEAN_MOTION_DOT":"0.00687909","PERIOD":"92.006","INCLINATION":"53.0538","MEAN_MOTION_DDOT":"0.0000000000000","MEAN_ANOMALY":"324.8909","TLE_LINE1":"1 47146U 20088AA  22028.84491651  .00687909  00000-0  62904-2 0  9994","LAUNCH_DATE":"2020-11-25","SEMIMAJOR_AXIS":"6751.034","BSTAR":"0.00629040000000","RA_OF_ASC_NODE":"187.8488","EPHEMERIS_TYPE":"0","COUNTRY_CODE":"US","RCS_SIZE":"LARGE","OBJECT_TYPE":"PAYLOAD","TIME_SYSTEM":"UTC","FILE":"3286235","ARG_OF_PERICENTER":"35.2244","TLE_LINE2":"2 47146  53.0538 187.8488 0002101  35.2244 324.8909 15.65118785 65784","MEAN_ELEMENT_THEORY":"SGP4","APOAPSIS":"374.318","REV_AT_EPOCH":"6578","DECAY_DATE":null,"REF_FRAME":"TEME","NORAD_CAT_ID":"47146","ELEMENT_SET_NO":"999","MEAN_MOTION":"15.65118785","OBJECT_ID":"2020-088AA"},{"EPHEMERIS_TYPE":"0","RCS_SIZE":"LARGE","COUNTRY_CODE":"US","TLE_LINE1":"1 47147U 20088AB  22028.85911038  .00001267  00000-0  10392-3 0  9994","MEAN_ANOMALY":"283.3629","RA_OF_ASC_NODE":"199.1190","BSTAR":"0.00010392000000","LAUNCH_DATE":"2020-11-25","SEMIMAJOR_AXIS":"6925.336","PERIOD":"95.592","MEAN_MOTION_DOT":"0.00001267","ECCENTRICITY":"0.00018140","MEAN_MOTION_DDOT":"0.0000000000000","INCLINATION":"53.0542","SITE":"AFETR","CENTER_NAME":"EARTH","OBJECT_NAME":"STARLINK-1860","CLASSIFICATION_TYPE":"U","PERIAPSIS":"545.945","EPOCH":"2022-01-28T20:37:07.136832","GP_ID":"194843953","MEAN_MOTION":"15.06403996","ELEMENT_SET_NO":"999","OBJECT_ID":"2020-088AB","APOAPSIS":"548.458","NORAD_CAT_ID":"47147","REF_FRAME":"TEME","DECAY_DATE":null,"REV_AT_EPOCH":"6563","TIME_SYSTEM":"UTC","OBJECT_TYPE":"PAYLOAD","TLE_LINE2":"2 47147  53.0542 199.1190 0001814  76.7563 283.3629 15.06403996 65638","MEAN_ELEMENT_THEORY":"SGP4","FILE":"3286235","ARG_OF_PERICENTER":"76.7563"},{"RA_OF_ASC_NODE":"189.2320","BSTAR":"0.00001271400000","LAUNCH_DATE":"2020-11-25","SEMIMAJOR_AXIS":"6925.338","TLE_LINE1":"1 47148U 20088AC  22028.83423618 -.00000092  00000-0  12714-4 0  9992","MEAN_ANOMALY":"276.8511","COUNTRY_CODE":"US","RCS_SIZE":"LARGE","EPHEMERIS_TYPE":"0","GP_ID":"194844203","CLASSIFICATION_TYPE":"U","OBJECT_NAME":"STARLINK-1861","PERIAPSIS":"545.848","EPOCH":"2022-01-28T20:01:18.005952","CENTER_NAME":"EARTH","SITE":"AFETR","MEAN_MOTION_DDOT":"0.0000000000000","INCLINATION":"53.0558","MEAN_MOTION_DOT":"-0.00000092","ECCENTRICITY":"0.00019570","PERIOD":"95.592","OBJECT_ID":"2020-088AC","MEAN_MOTION":"15.06403346","ELEMENT_SET_NO":"999","FILE":"3286235","ARG_OF_PERICENTER":"83.2701","TLE_LINE2":"2 47148  53.0558 189.2320 0001957  83.2701 276.8511 15.06403346 65766","MEAN_ELEMENT_THEORY":"SGP4","OBJECT_TYPE":"PAYLOAD","TIME_SYSTEM":"UTC","DECAY_DATE":null,"REV_AT_EPOCH":"6576","NORAD_CAT_ID":"47148","REF_FRAME":"TEME","APOAPSIS":"548.559"},{"ELEMENT_SET_NO":"999","MEAN_MOTION":"15.06402753","OBJECT_ID":"2020-088AD","APOAPSIS":"548.639","REF_FRAME":"TEME","NORAD_CAT_ID":"47149","REV_AT_EPOCH":"6636","DECAY_DATE":null,"TIME_SYSTEM":"UTC","OBJECT_TYPE":"PAYLOAD","MEAN_ELEMENT_THEORY":"SGP4","TLE_LINE2":"2 47149  53.0534 199.0922 0002070  85.2112 274.9113 15.06402753 66368","ARG_OF_PERICENTER":"85.2112","FILE":"3286235","EPHEMERIS_TYPE":"0","RCS_SIZE":"LARGE","COUNTRY_CODE":"US","MEAN_ANOMALY":"274.9113","TLE_LINE1":"1 47149U 20088AD  22028.86279546  .00001010  00000-0  86670-4 0  9997","LAUNCH_DATE":"2020-11-25","SEMIMAJOR_AXIS":"6925.340","BSTAR":"0.00008667000000","RA_OF_ASC_NODE":"199.0922","PERIOD":"95.592","ECCENTRICITY":"0.00020700","MEAN_MOTION_DOT":"0.00001010","INCLINATION":"53.0534","MEAN_MOTION_DDOT":"0.0000000000000","CENTER_NAME":"EARTH","SITE":"AFETR","EPOCH":"2022-01-28T20:42:25.527744","PERIAPSIS":"545.772","OBJECT_NAME":"STARLINK-1862","CLASSIFICATION_TYPE":"U","GP_ID":"194844955"},{"OBJECT_ID":"2020-088AE","MEAN_MOTION":"15.06402018","ELEMENT_SET_NO":"999","DECAY_DATE":null,"REV_AT_EPOCH":"6577","NORAD_CAT_ID":"47150","REF_FRAME":"TEME","APOAPSIS":"548.739","ARG_OF_PERICENTER":"86.2535","FILE":"3286235","TLE_LINE2":"2 47150  53.0535 189.1206 0002211  86.2535 273.8707 15.06402018 65778","MEAN_ELEMENT_THEORY":"SGP4","OBJECT_TYPE":"PAYLOAD","TIME_SYSTEM":"UTC","COUNTRY_CODE":"US","RCS_SIZE":"LARGE","EPHEMERIS_TYPE":"0","RA_OF_ASC_NODE":"189.1206","LAUNCH_DATE":"2020-11-25","BSTAR":"-0.00001031300000","SEMIMAJOR_AXIS":"6925.342","TLE_LINE1":"1 47150U 20088AE  22028.85634844 -.00000435  00000-0 -10313-4 0  9997","MEAN_ANOMALY":"273.8707","MEAN_MOTION_DDOT":"0.0000000000000","INCLINATION":"53.0535","ECCENTRICITY":"0.00022110","MEAN_MOTION_DOT":"-0.00000435","PERIOD":"95.592","GP_ID":"194844706","CLASSIFICATION_TYPE":"U","OBJECT_NAME":"STARLINK-1863","PERIAPSIS":"545.676","EPOCH":"2022-01-28T20:33:08.505216","SITE":"AFETR","CENTER_NAME":"EARTH"},{"ELEMENT_SET_NO":"999","MEAN_MOTION":"15.06403645","OBJECT_ID":"2020-088AF","TIME_SYSTEM":"UTC","OBJECT_TYPE":"PAYLOAD","TLE_LINE2":"2 47151  53.0549 199.1284 0001992  81.6124 278.5090 15.06403645 65627","MEAN_ELEMENT_THEORY":"SGP4","FILE":"3286235","ARG_OF_PERICENTER":"81.6124","APOAPSIS":"548.582","REF_FRAME":"TEME","NORAD_CAT_ID":"47151","REV_AT_EPOCH":"6562","DECAY_DATE":null,"MEAN_ANOMALY":"278.5090","TLE_LINE1":"1 47151U 20088AF  22028.85542587  .00001019  00000-0  87319-4 0  9997","BSTAR":"0.00008731900000","LAUNCH_DATE":"2020-11-25","SEMIMAJOR_AXIS":"6925.337","RA_OF_ASC_NODE":"199.1284","EPHEMERIS_TYPE":"0","RCS_SIZE":"LARGE","COUNTRY_CODE":"US","CENTER_NAME":"EARTH","SITE":"AFETR","PERIAPSIS":"545.823","EPOCH":"2022-01-28T20:31:48.795168","OBJECT_NAME":"STARLINK-1864","CLASSIFICATION_TYPE":"U","GP_ID":"194843454","PERIOD":"95.592","MEAN_MOTION_DOT":"0.00001019","ECCENTRICITY":"0.00019920","INCLINATION":"53.0549","MEAN_MOTION_DDOT":"0.0000000000000"}];
